FENGYUN 1C DEB          
1 32407U 99025CZT 17327.91252846  .00008076  00000-0  43034-3 0  9996
2 32407  98.5638 136.2723 0200560 294.5303  62.9507 14.99825131553612
